[{"OBJECT_NAME":"EDISON-1","OBJECT_ID":"2025-009B","EPOCH":"2026-03-09T19:16:13.822464","MEAN_MOTION":15.29042904,"ECCENTRICITY":0.00043285,"INCLINATION":97.4042,"RA_OF_ASC_NODE":151.6286,"ARG_OF_PERICENTER":306.4185,"MEAN_ANOMALY":53.6655,"EPHEMERIS_TYPE":0,"CLASSIFICATION_TYPE":"U","NORAD_CAT_ID":62610,"ELEMENT_SET_NO":999,"REV_AT_EPOCH":6375,"BSTAR":0.00052814963,"MEAN_MOTION_DOT":0.00014835,"MEAN_MOTION_DDOT":0},{"OBJECT_NAME":"STARLINK-33702","OBJECT_ID":"2025-076Y","EPOCH":"2026-03-09T00:55:42.904128","MEAN_MOTION":15.27600182,"ECCENTRICITY":0.00016871,"INCLINATION":43.0039,"RA_OF_ASC_NODE":325.1251,"ARG_OF_PERICENTER":264.3983,"MEAN_ANOMALY":95.6676,"EPHEMERIS_TYPE":0,"CLASSIFICATION_TYPE":"U","NORAD_CAT_ID":63591,"ELEMENT_SET_NO":999,"REV_AT_EPOCH":5173,"BSTAR":0.0016649746,"MEAN_MOTION_DOT":0.00045868,"MEAN_MOTION_DDOT":0}]
